{
  "type": "FeatureCollection",
  "features": [
    {
      "type": "Feature",
      "properties": {
        "norad_id": 35060,
        "name": "COSMOS 2251 DEB",
        "group": "cosmos-2251-debris",
        "lat": 35.81244721942211,
        "lon": 71.23316117543666,
        "alt_km": 761.86425718388,
        "timestamp": "2025-12-02T13:52:17.657262+00:00",
        "meta_object_name": "COSMOS 2251 DEB",
        "meta_object_id": "1993-036AHP",
        "meta_epoch": "2025-11-28T02:37:07.839264",
        "meta_mean_motion": 14.41547968,
        "meta_eccentricity": 0.00179641,
        "meta_inclination": 74.0363,
        "meta_ra_of_asc_node": 271.4275,
        "meta_arg_of_pericenter": 359.5881,
        "meta_mean_anomaly": 0.5257,
        "meta_ephemeris_type": 0,
        "meta_classification_type": "U",
        "meta_norad_cat_id": 35060,
        "meta_element_set_no": 999,
        "meta_rev_at_epoch": 87031,
        "meta_bstar": 0.0004076845,
        "meta_mean_motion_dot": 1.301e-05,
        "meta_mean_motion_ddot": 0,
        "tle_line1": "1 35060U 93036AHP 25332.10911851  .00001301  00000+0  40768-3 0  9998",
        "tle_line2": "2 35060  74.0363 271.4275 0017964 359.5881   0.5257 14.41547968870310"
      },
      "geometry": {
        "type": "Point",
        "coordinates": [
          71.23316117543666,
          35.81244721942211
        ]
      }
    },
    {
      "type": "Feature",
      "properties": {
        "norad_id": 35061,
        "name": "COSMOS 2251 DEB",
        "group": "cosmos-2251-debris",
        "lat": 28.283955994748826,
        "lon": 136.49204936913787,
        "alt_km": 657.8686872490343,
        "timestamp": "2025-12-02T13:52:17.657273+00:00",
        "meta_object_name": "COSMOS 2251 DEB",
        "meta_object_id": "1993-036AHQ",
        "meta_epoch": "2025-11-30T23:33:59.477760",
        "meta_mean_motion": 14.67665765,
        "meta_eccentricity": 0.00387935,
        "meta_inclination": 74.045,
        "meta_ra_of_asc_node": 328.4273,
        "meta_arg_of_pericenter": 82.9269,
        "meta_mean_anomaly": 277.631,
        "meta_ephemeris_type": 0,
        "meta_classification_type": "U",
        "meta_norad_cat_id": 35061,
        "meta_element_set_no": 999,
        "meta_rev_at_epoch": 88402,
        "meta_bstar": 0.00075389945,
        "meta_mean_motion_dot": 4.308e-05,
        "meta_mean_motion_ddot": 0,
        "tle_line1": "1 35061U 93036AHQ 25334.98193840  .00004308  00000+0  75390-3 0  9996",
        "tle_line2": "2 35061  74.0450 328.4273 0038793  82.9269 277.6310 14.67665765884023"
      },
      "geometry": {
        "type": "Point",
        "coordinates": [
          136.49204936913787,
          28.283955994748826
        ]
      }
    },
    {
      "type": "Feature",
      "properties": {
        "norad_id": 35062,
        "name": "COSMOS 2251 DEB",
        "group": "cosmos-2251-debris",
        "lat": 43.35307888435885,
        "lon": 127.09734884094622,
        "alt_km": 776.8795963547036,
        "timestamp": "2025-12-02T13:52:17.657283+00:00",
        "meta_object_name": "COSMOS 2251 DEB",
        "meta_object_id": "1993-036AHR",
        "meta_epoch": "2025-12-01T08:58:12.976320",
        "meta_mean_motion": 14.22770227,
        "meta_eccentricity": 0.01291712,
        "meta_inclination": 74.0782,
        "meta_ra_of_asc_node": 113.6209,
        "meta_arg_of_pericenter": 116.5829,
        "meta_mean_anomaly": 244.8622,
        "meta_ephemeris_type": 0,
        "meta_classification_type": "U",
        "meta_norad_cat_id": 35062,
        "meta_element_set_no": 999,
        "meta_rev_at_epoch": 85337,
        "meta_bstar": 0.0022023834,
        "meta_mean_motion_dot": 5.359e-05,
        "meta_mean_motion_ddot": 0,
        "tle_line1": "1 35062U 93036AHR 25335.37376130  .00005359  00000+0  22024-2 0  9998",
        "tle_line2": "2 35062  74.0782 113.6209 0129171 116.5829 244.8622 14.22770227853379"
      },
      "geometry": {
        "type": "Point",
        "coordinates": [
          127.09734884094622,
          43.35307888435885
        ]
      }
    },
    {
      "type": "Feature",
      "properties": {
        "norad_id": 35065,
        "name": "COSMOS 2251 DEB",
        "group": "cosmos-2251-debris",
        "lat": -19.91053225746855,
        "lon": -152.65167539950264,
        "alt_km": 730.8179163638379,
        "timestamp": "2025-12-02T13:52:17.657293+00:00",
        "meta_object_name": "COSMOS 2251 DEB",
        "meta_object_id": "1993-036AHU",
        "meta_epoch": "2025-11-28T23:36:19.413792",
        "meta_mean_motion": 14.45665304,
        "meta_eccentricity": 0.00193805,
        "meta_inclination": 74.0201,
        "meta_ra_of_asc_node": 220.0123,
        "meta_arg_of_pericenter": 347.0058,
        "meta_mean_anomaly": 13.0597,
        "meta_ephemeris_type": 0,
        "meta_classification_type": "U",
        "meta_norad_cat_id": 35065,
        "meta_element_set_no": 999,
        "meta_rev_at_epoch": 68152,
        "meta_bstar": 0.00046954745,
        "meta_mean_motion_dot": 1.638e-05,
        "meta_mean_motion_ddot": 0,
        "tle_line1": "1 35065U 93036AHU 25332.98355803  .00001638  00000+0  46955-3 0  9995",
        "tle_line2": "2 35065  74.0201 220.0123 0019380 347.0058  13.0597 14.45665304681528"
      },
      "geometry": {
        "type": "Point",
        "coordinates": [
          -152.65167539950264,
          -19.91053225746855
        ]
      }
    },
    {
      "type": "Feature",
      "properties": {
        "norad_id": 35071,
        "name": "COSMOS 2251 DEB",
        "group": "cosmos-2251-debris",
        "lat": -67.47335547948555,
        "lon": 58.35010188029998,
        "alt_km": 608.5240428229672,
        "timestamp": "2025-12-02T13:52:17.657303+00:00",
        "meta_object_name": "COSMOS 2251 DEB",
        "meta_object_id": "1993-036AJA",
        "meta_epoch": "2025-11-29T00:05:19.896000",
        "meta_mean_motion": 15.0306331,
        "meta_eccentricity": 0.00683354,
        "meta_inclination": 73.9323,
        "meta_ra_of_asc_node": 201.6723,
        "meta_arg_of_pericenter": 102.3686,
        "meta_mean_anomaly": 258.5162,
        "meta_ephemeris_type": 0,
        "meta_classification_type": "U",
        "meta_norad_cat_id": 35071,
        "meta_element_set_no": 999,
        "meta_rev_at_epoch": 67330,
        "meta_bstar": 0.00075428024,
        "meta_mean_motion_dot": 0.00010673,
        "meta_mean_motion_ddot": 0,
        "tle_line1": "1 35071U 93036AJA 25333.00370250  .00010673  00000+0  75428-3 0  9995",
        "tle_line2": "2 35071  73.9323 201.6723 0068335 102.3686 258.5162 15.03063310673307"
      },
      "geometry": {
        "type": "Point",
        "coordinates": [
          58.35010188029998,
          -67.47335547948555
        ]
      }
    },
    {
      "type": "Feature",
      "properties": {
        "norad_id": 35073,
        "name": "COSMOS 2251 DEB",
        "group": "cosmos-2251-debris",
        "lat": 58.46915778635313,
        "lon": 143.40358160625595,
        "alt_km": 556.1422355375353,
        "timestamp": "2025-12-02T13:52:17.657313+00:00",
        "meta_object_name": "COSMOS 2251 DEB",
        "meta_object_id": "1993-036AJC",
        "meta_epoch": "2025-11-29T08:29:21.429600",
        "meta_mean_motion": 14.99364384,
        "meta_eccentricity": 0.00097336,
        "meta_inclination": 74.0024,
        "meta_ra_of_asc_node": 357.8403,
        "meta_arg_of_pericenter": 101.5288,
        "meta_mean_anomaly": 258.6992,
        "meta_ephemeris_type": 0,
        "meta_classification_type": "U",
        "meta_norad_cat_id": 35073,
        "meta_element_set_no": 999,
        "meta_rev_at_epoch": 67278,
        "meta_bstar": 0.00211185,
        "meta_mean_motion_dot": 0.00025921,
        "meta_mean_motion_ddot": 0,
        "tle_line1": "1 35073U 93036AJC 25333.35372025  .00025921  00000+0  21119-2 0  9996",
        "tle_line2": "2 35073  74.0024 357.8403 0009733 101.5288 258.6992 14.99364384672786"
      },
      "geometry": {
        "type": "Point",
        "coordinates": [
          143.40358160625595,
          58.46915778635313
        ]
      }
    },
    {
      "type": "Feature",
      "properties": {
        "norad_id": 35280,
        "name": "COSMOS 2251 DEB",
        "group": "cosmos-2251-debris",
        "lat": 55.37643049087654,
        "lon": -118.8842667323819,
        "alt_km": 52.80819252921083,
        "timestamp": "2025-12-02T13:52:17.657323+00:00",
        "meta_object_name": "COSMOS 2251 DEB",
        "meta_object_id": "1993-036AJJ",
        "meta_epoch": "2025-11-12T05:44:02.487552",
        "meta_mean_motion": 15.48119691,
        "meta_eccentricity": 0.00063876,
        "meta_inclination": 73.9815,
        "meta_ra_of_asc_node": 131.656,
        "meta_arg_of_pericenter": 153.4254,
        "meta_mean_anomaly": 206.7286,
        "meta_ephemeris_type": 0,
        "meta_classification_type": "U",
        "meta_norad_cat_id": 35280,
        "meta_element_set_no": 999,
        "meta_rev_at_epoch": 87074,
        "meta_bstar": 0.018411483,
        "meta_mean_motion_dot": 0.01068411,
        "meta_mean_motion_ddot": 0,
        "tle_line1": "1 35280U 93036AJJ 25316.23891768  .01068411  00000+0  18411-1 0  9996",
        "tle_line2": "2 35280  73.9815 131.6560 0006387 153.4254 206.7286 15.48119691870745"
      },
      "geometry": {
        "type": "Point",
        "coordinates": [
          -118.8842667323819,
          55.37643049087654
        ]
      }
    }
  ]
}